$$SOE
2461295.500000000, A.D. 2026-Sep-12 00:00:00.0000, -3.331512770770004E+08, -2.751310569097233E+08, -8.788153218449578E+06,
2461302.500000000, A.D. 2026-Sep-19 00:00:00.0000, -3.257858192620394E+08, -2.826272359359120E+08, -8.888789221071646E+06,
2461309.500000000, A.D. 2026-Sep-26 00:00:00.0000, -3.182233526693617E+08, -2.899525092727273E+08, -8.984049323198155E+06,
2461316.500000000, A.D. 2026-Oct-03 00:00:00.0000, -3.104674011866267E+08, -2.971014930762709E+08, -9.073846207902357E+06,
2461323.500000000, A.D. 2026-Oct-10 00:00:00.0000, -3.025216419443548E+08, -3.040688492215282E+08, -9.158094874325901E+06,
2461330.500000000, A.D. 2026-Oct-17 00:00:00.0000, -2.943899065117590E+08, -3.108492896590762E+08, -9.236712738050535E+06,
2461337.500000000, A.D. 2026-Oct-24 00:00:00.0000, -2.860761819938934E+08, -3.174375810179467E+08, -9.309619741498932E+06,
2461344.500000000, A.D. 2026-Oct-31 00:00:00.0000, -2.775846119218470E+08, -3.238285495209920E+08, -9.376738488617629E+06,
2461351.500000000, A.D. 2026-Nov-07 00:00:00.0000, -2.689194965869521E+08, -3.300170861378043E+08, -9.437994428580970E+06,
2461358.500000000, A.D. 2026-Nov-14 00:00:00.0000, -2.600852926077549E+08, -3.359981510861678E+08, -9.493316034047902E+06,
2461365.500000000, A.D. 2026-Nov-21 00:00:00.0000, -2.510866135302880E+08, -3.417667769975316E+08, -9.542634751666248E+06,
2461372.500000000, A.D. 2026-Nov-28 00:00:00.0000, -2.419282324477403E+08, -3.473180737518800E+08, -9.585884878783688E+06,
2461379.500000000, A.D. 2026-Dec-05 00:00:00.0000, -2.326150830089111E+08, -3.526472356367143E+08, -9.623003751699775E+06,
2461386.500000000, A.D. 2026-Dec-12 00:00:00.0000, -2.231522586404612E+08, -3.577495477165356E+08, -9.653932005885899E+06,
2461393.500000000, A.D. 2026-Dec-19 00:00:00.0000, -2.135450118594608E+08, -3.626203914014521E+08, -9.678613733964965E+06,
2461400.500000000, A.D. 2026-Dec-26 00:00:00.0000, -2.037987538069061E+08, -3.672552500766358E+08, -9.696996598786652E+06,
2461407.500000000, A.D. 2027-Jan-02 00:00:00.0000, -1.939190537141789E+08, -3.716497149768090E+08, -9.709031942102149E+06,
2461414.500000000, A.D. 2027-Jan-09 00:00:00.0000, -1.839116381735823E+08, -3.757994912790434E+08, -9.714674897659153E+06,
2461421.500000000, A.D. 2027-Jan-16 00:00:00.0000, -1.737823901667623E+08, -3.797004043984631E+08, -9.713884511014014E+06,
2461428.500000000, A.D. 2027-Jan-23 00:00:00.0000, -1.635373477951885E+08, -3.833484065190109E+08, -9.706623873244643E+06,
2461435.500000000, A.D. 2027-Jan-30 00:00:00.0000, -1.531827025155250E+08, -3.867395833983304E+08, -9.692860289397717E+06,
2461442.500000000, A.D. 2027-Feb-06 00:00:00.0000, -1.427247964458273E+08, -3.898701610969151E+08, -9.672565492578924E+06,
2461449.500000000, A.D. 2027-Feb-13 00:00:00.0000, -1.321701191936917E+08, -3.927365114007906E+08, -9.645715761552870E+06,
2461456.500000000, A.D. 2027-Feb-20 00:00:00.0000, -1.215253065607532E+08, -3.953351567159798E+08, -9.612291789511979E+06,
2461463.500000000, A.D. 2027-Feb-27 00:00:00.0000, -1.107971397178639E+08, -3.976627776352856E+08, -9.572278694604009E+06,
2461470.500000000, A.D. 2027-Mar-06 00:00:00.0000, -9.999254182453831E+07, -3.997162212420034E+08, -9.525666291743904E+06,
2461477.500000000, A.D. 2027-Mar-13 00:00:00.0000, -8.911857368598694E+07, -4.014925080856885E+08, -9.472449310994685E+06,
2461484.500000000, A.D. 2027-Mar-20 00:00:00.0000, -7.818242956979498E+07, -4.029888386453961E+08, -9.412627526547432E+06,
2461491.500000000, A.D. 2027-Mar-27 00:00:00.0000, -6.719143297150423E+07, -4.042025998081137E+08, -9.346205859174520E+06,
2461498.500000000, A.D. 2027-Apr-03 00:00:00.0000, -5.615303211640045E+07, -4.051313713892643E+08, -9.273194474417955E+06,
2461505.500000000, A.D. 2027-Apr-10 00:00:00.0000, -4.507479512691736E+07, -4.057729326535977E+08, -9.193608880244285E+06,
2461512.500000000, A.D. 2027-Apr-17 00:00:00.0000, -3.396440482678629E+07, -4.061252688343138E+08, -9.107470027362525E+06,
2461519.500000000, A.D. 2027-Apr-24 00:00:00.0000, -2.282965309944789E+07, -4.061865776960535E+08, -9.014804424274206E+06,
2461526.500000000, A.D. 2027-May-01 00:00:00.0000, -1.167843450042831E+07, -4.059552760951571E+08, -8.915644291682869E+06,
2461533.500000000, A.D. 2027-May-08 00:00:00.0000, -5.187388168436101E+05, -4.054300057673065E+08, -8.810027722576082E+06,
2461540.500000000, A.D. 2027-May-15 00:00:00.0000, 1.064135592785382E+07, -4.046096373652420E+08, -8.697998632057697E+06,
2461547.500000000, A.D. 2027-May-22 00:00:00.0000, 2.179368845855916E+07, -4.034932753122808E+08, -8.579606564722896E+06,
2461554.500000000, A.D. 2027-May-29 00:00:00.0000, 3.293002057688425E+07, -4.020802649147245E+08, -8.454906786922634E+06,
2461561.500000000, A.D. 2027-Jun-05 00:00:00.0000, 4.404204571435824E+07, -4.003701985783828E+08, -8.323960488615870E+06,
2461568.500000000, A.D. 2027-Jun-12 00:00:00.0000, 5.512139769642733E+07, -3.983629206741539E+08, -8.186834874764264E+06,
2461575.500000000, A.D. 2027-Jun-19 00:00:00.0000, 6.615965937752878E+07, -3.960585319632834E+08, -8.043603191639721E+06,
2461582.500000000, A.D. 2027-Jun-26 00:00:00.0000, 7.714837141586885E+07, -3.934573938185828E+08, -7.894344734318733E+06,
2461589.500000000, A.D. 2027-Jul-03 00:00:00.0000, 8.807904130719621E+07, -3.905601322074946E+08, -7.739144846075326E+06,
2461596.500000000, A.D. 2027-Jul-10 00:00:00.0000, 9.894315270018435E+07, -3.873676414016538E+08, -7.578094911673367E+06,
2461603.500000000, A.D. 2027-Jul-17 00:00:00.0000, 1.097321750150283E+08, -3.838810874255265E+08, -7.411292350478649E+06,
2461610.500000000, A.D. 2027-Jul-24 00:00:00.0000, 1.204375735062564E+08, -3.801019112827842E+08, -7.238840628288031E+06,
2461617.500000000, A.D. 2027-Jul-31 00:00:00.0000, 1.310508201639088E+08, -3.760318317035567E+08, -7.060849305750817E+06,
2461624.500000000, A.D. 2027-Aug-07 00:00:00.0000, 1.415634052322829E+08, -3.716728462414485E+08, -6.877434010307014E+06,
2461631.500000000, A.D. 2027-Aug-14 00:00:00.0000, 1.519668470219728E+08, -3.670272309544804E+08, -6.688716140955761E+06,
2461638.500000000, A.D. 2027-Aug-21 00:00:00.0000, 1.622527006083000E+08, -3.620975420143064E+08, -6.494822637440488E+06,
2461645.500000000, A.D. 2027-Aug-28 00:00:00.0000, 1.724125688214898E+08, -3.568866180227205E+08, -6.295886030259907E+06,
2461652.500000000, A.D. 2027-Sep-04 00:00:00.0000, 1.824381143200218E+08, -3.513975805186691E+08, -6.092044458699182E+06,
2461659.500000000, A.D. 2027-Sep-11 00:00:00.0000, 1.923210713220654E+08, -3.456338333237782E+08, -5.883441583020702E+06,
2461666.500000000, A.D. 2027-Sep-18 00:00:00.0000, 2.020532570968956E+08, -3.395990613640719E+08, -5.670226456337333E+06,
2461673.500000000, A.D. 2027-Sep-25 00:00:00.0000, 2.116265834127953E+08, -3.332972290346241E+08, -5.452553383752003E+06,
2461680.500000000, A.D. 2027-Oct-02 00:00:00.0000, 2.210330679829456E+08, -3.267325780706637E+08, -5.230581773717299E+06,
2461687.500000000, A.D. 2027-Oct-09 00:00:00.0000, 2.302648458970092E+08, -3.199096249224316E+08, -5.004475984486073E+06,
2461694.500000000, A.D. 2027-Oct-16 00:00:00.0000, 2.393141810664103E+08, -3.128331576829524E+08, -4.774405176502004E+06,
2461701.500000000, A.D. 2027-Oct-23 00:00:00.0000, 2.481734779089875E+08, -3.055082325714031E+08, -4.540543195575595E+06,
2461708.500000000, A.D. 2027-Oct-30 00:00:00.0000, 2.568352936144415E+08, -2.979401693634967E+08, -4.303068471663386E+06,
2461715.500000000, A.D. 2027-Nov-06 00:00:00.0000, 2.652923497927949E+08, -2.901345446471246E+08, -4.062163734565198E+06,
2461722.500000000, A.D. 2027-Nov-13 00:00:00.0000, 2.735375414835772E+08, -2.820971849874066E+08, -3.818015534526259E+06,
2461729.500000000, A.D. 2027-Nov-20 00:00:00.0000, 2.815639463899596E+08, -2.738341621950061E+08, -3.570814013128296E+06,
2461736.500000000, A.D. 2027-Nov-27 00:00:00.0000, 2.893648359191548E+08, -2.653517877443309E+08, -3.320752831065759E+06,
2461743.500000000, A.D. 2027-Dec-04 00:00:00.0000, 2.969336859691072E+08, -2.566566054422264E+08, -3.068028993015960E+06,
2461750.500000000, A.D. 2027-Dec-11 00:00:00.0000, 3.042641868740864E+08, -2.477553833262300E+08, -2.812842598595306E+06,
2461757.500000000, A.D. 2027-Dec-18 00:00:00.0000, 3.113502527497991E+08, -2.386551051469615E+08, -2.555396573241323E+06,
2461764.500000000, A.D. 2027-Dec-25 00:00:00.0000, 3.181860303603070E+08, -2.293629614551813E+08, -2.295896394029126E+06,
2461771.500000000, A.D. 2028-Jan-01 00:00:00.0000, 3.247659075224261E+08, -2.198863403026128E+08, -2.034549813706860E+06,
$$EOE